[{"OBJECT_NAME":"OBJECT E","OBJECT_ID":"2024-153E","EPOCH":"2026-03-09T23:09:09.513216","MEAN_MOTION":15.24133271,"ECCENTRICITY":4.895e-5,"INCLINATION":97.6591,"RA_OF_ASC_NODE":203.8355,"ARG_OF_PERICENTER":171.5214,"MEAN_ANOMALY":188.6031,"EPHEMERIS_TYPE":0,"CLASSIFICATION_TYPE":"U","NORAD_CAT_ID":60749,"ELEMENT_SET_NO":999,"REV_AT_EPOCH":8470,"BSTAR":0.00081752478,"MEAN_MOTION_DOT":0.00019841,"MEAN_MOTION_DDOT":0},{"OBJECT_NAME":"YAOGAN-47","OBJECT_ID":"2025-289A","EPOCH":"2026-03-09T23:10:46.642368","MEAN_MOTION":15.23707396,"ECCENTRICITY":0.00012775,"INCLINATION":97.5108,"RA_OF_ASC_NODE":139.261,"ARG_OF_PERICENTER":63.9903,"MEAN_ANOMALY":296.1465,"EPHEMERIS_TYPE":0,"CLASSIFICATION_TYPE":"U","NORAD_CAT_ID":66988,"ELEMENT_SET_NO":999,"REV_AT_EPOCH":1382,"BSTAR":0.00032587728,"MEAN_MOTION_DOT":7.755e-5,"MEAN_MOTION_DDOT":0}]
